NORAD_CAT_ID,OBJECT_NAME,OBJECT_TYPE,EPOCH,MEAN_MOTION,ECCENTRICITY,INCLINATION,RA_OF_ASC_NODE,ARG_OF_PERICENTER,MEAN_ANOMALY,BSTAR,MEAN_MOTION_DOT,MEAN_MOTION_DDOT,TLE_LINE0,TLE_LINE1,TLE_LINE2,SEMIMAJOR_AXIS,PERIOD,APOGEE,PERIGEE,DECAYED
51889.0,STARLINK-3547,PAYLOAD,2022-03-26 22:00:00,15.73218054,0.0001225,53.219,28.7663,83.5929,319.7408,-0.00025999,-0.00036975,0.0,0 STARLINK-3547,1 51889U 22022AP  22085.91667824 -.00036975  00000-0 -25999-3 0  9998,2 51889  53.2190  28.7663 0001225  83.5929 319.7408 15.73218054  3709,6727.844,91.532,350.533,348.885,0.0
51889.0,STARLINK-3547,PAYLOAD,2022-03-27 14:00:01,15.73178772,0.0001038,53.2187,25.4673,81.7622,139.4493,0.00038033,0.00053045,0.0,0 STARLINK-3547,1 51889U 22022AP  22086.58334491  .00053045  00000-0  38033-3 0  9991,2 51889  53.2187  25.4673 0001038  81.7622 139.4493 15.73178772  4997,6727.956,91.534,350.519,349.122,0.0
51889.0,STARLINK-3547,PAYLOAD,2022-03-27 22:00:01,15.73240064,0.0001051,53.2188,23.8181,86.4123,223.7769,0.0001879,0.00025877,0.0,0 STARLINK-3547,1 51889U 22022AP  22086.91668981  .00025877  00000-0  18790-3 0  9992,2 51889  53.2188  23.8181 0001051  86.4123 223.7769 15.73240064  3702,6727.781,91.531,350.353,348.939,0.0
51889.0,STARLINK-3547,PAYLOAD,2022-03-28 14:00:01,15.73205034,9.87e-05,53.2174,20.5043,79.6597,48.2119,-4.646e-06,-1.271e-05,0.0,0 STARLINK-3547,1 51889U 22022AP  22087.58335648 -.00001271  00000-0 -46460-5 0  9998,2 51889  53.2174  20.5043 0000987  79.6597  48.2119 15.73205034  3701,6727.880999999999,91.533,350.41,349.082,0.0
51889.0,STARLINK-3547,PAYLOAD,2022-03-28 22:00:00,15.73221642,0.0001237,53.2191,18.8696,89.5812,127.4118,-0.00041184,-0.00058074,0.0,0 STARLINK-3547,1 51889U 22022AP  22087.91667824 -.00058074  00000-0 -41184-3 0  9998,2 51889  53.2191  18.8696 0001237  89.5812 127.4118 15.73221642  5202,6727.833000000001,91.532,350.531,348.866,0.0
51889.0,STARLINK-3547,PAYLOAD,2022-03-29 04:00:00,15.73154343,0.0001198,53.2184,17.634,78.2863,115.412,0.00066369,0.00093382,0.0,0 STARLINK-3547,1 51889U 22022AP  22088.16667824  .00093382  00000-0  66369-3 0  9997,2 51889  53.2184  17.6340 0001198  78.2863 115.4120 15.73154343  5241,6728.025,91.536,350.696,349.084,0.0
51889.0,STARLINK-3547,PAYLOAD,2022-03-29 12:00:00,15.73259686,0.0001164,53.2173,15.9832,87.1329,195.4626,-0.00062996,-0.00088331,0.0,0 STARLINK-3547,1 51889U 22022AP  22088.50001157 -.00088331  00000-0 -62996-3 0  9998,2 51889  53.2173  15.9832 0001164  87.1329 195.4626 15.73259686  5295,6727.725,91.53,350.37300000000016,348.807,0.0
51889.0,STARLINK-3547,PAYLOAD,2022-03-29 14:00:01,15.73225786,0.0001151,53.2173,15.5705,91.3435,303.5017,-0.0002788999999999,-0.0003962,0.0,0 STARLINK-3547,1 51889U 22022AP  22088.58334491 -.00039620  00000-0 -27890-3 0  9997,2 51889  53.2173  15.5705 0001151  91.3435 303.5017 15.73225786  3660,6727.821999999999,91.532,350.461,348.912,0.0
51889.0,STARLINK-3547,PAYLOAD,2022-03-29 22:00:00,15.73208592,0.0001183,53.2171,13.9216,92.4062,31.3792,-0.0003369,-0.00047651,0.0,0 STARLINK-3547,1 51889U 22022AP  22088.91667824 -.00047651  00000-0 -33690-3 0  9991,2 51889  53.2171  13.9216 0001183  92.4062  31.3792 15.73208592  3695,6727.871,91.533,350.532,348.94,0.0
51889.0,STARLINK-3547,PAYLOAD,2022-03-30 04:00:00,15.73154438,0.0001104,53.2172,12.6861,83.0616,17.4209,0.00068518,0.00096461,0.0,0 STARLINK-3547,1 51889U 22022AP  22089.16667824  .00096461  00000-0  68518-3 0  9997,2 51889  53.2172  12.6861 0001104  83.0616  17.4209 15.73154438  5398,6728.025,91.536,350.6330000000001,349.147,0.0
51889.0,STARLINK-3547,PAYLOAD,2022-03-30 12:00:00,15.73241066,0.0001089,53.2173,11.0349,91.3204,98.0791,-0.00042394,-0.00059798,0.0,0 STARLINK-3547,1 51889U 22022AP  22089.50001157 -.00059798  00000-0 -42394-3 0  9994,2 51889  53.2173  11.0349 0001089  91.3204  98.0791 15.73241066  5452,6727.778,91.531,350.376,348.91,0.0
51889.0,STARLINK-3547,PAYLOAD,2022-03-30 14:00:01,15.73199965,0.0001087,53.2174,10.6221,94.7988,206.913,-8.1679e-05,-0.00012066,0.0,0 STARLINK-3547,1 51889U 22022AP  22089.58335648 -.00012066  00000-0 -81679-4 0  9994,2 51889  53.2174  10.6221 0001087  94.7988 206.9130 15.73199965  3670,6727.895,91.533,350.492,349.029,0.0
51889.0,STARLINK-3547,PAYLOAD,2022-03-30 22:00:00,15.73191042,0.0001135,53.2177,8.9734,93.1566,297.4139,-3.9244e-05,-6.121e-05,0.0,0 STARLINK-3547,1 51889U 22022AP  22089.91667824 -.00006121  00000-0 -39244-4 0  9991,2 51889  53.2177   8.9734 0001135  93.1566 297.4139 15.73191042  3729,6727.920999999999,91.534,350.5490000000001,349.022,0.0
51889.0,STARLINK-3547,PAYLOAD,2022-03-31 06:00:00,15.73154641,0.000117,53.2171,7.322,81.6863,37.8099,0.00026722,0.00036975,0.0,0 STARLINK-3547,1 51889U 22022AP  22090.25001157  .00036975  00000-0  26722-3 0  9995,2 51889  53.2171   7.3220 0001170  81.6863  37.8099 15.73154641  5566,6728.024,91.536,350.677,349.102,0.0
51889.0,STARLINK-3547,PAYLOAD,2022-03-31 14:00:01,15.73179118,0.0001248,53.2174,5.6739,96.7977,111.6037,0.00048087,0.00067349,0.0,0 STARLINK-3547,1 51889U 22022AP  22090.58334491  .00067349  00000-0  48087-3 0  9998,2 51889  53.2174   5.6739 0001248  96.7977 111.6037 15.73179118  3695,6727.955,91.534,350.659,348.98,0.0
51889.0,STARLINK-3547,PAYLOAD,2022-03-31 22:00:00,15.73227332,0.0001395999999999,53.2173,4.0255,95.0259,202.3291,2.236300000000001e-05,2.523e-05,0.0,0 STARLINK-3547,1 51889U 22022AP  22090.91667824  .00002523  00000-0  22363-4 0  9997,2 51889  53.2173   4.0255 0001396  95.0259 202.3291 15.73227332  5671,6727.816999999999,91.532,350.621,348.74300000000005,0.0
51889.0,STARLINK-3547,PAYLOAD,2022-04-01 06:00:00,15.73265722,0.0001269,53.2168,2.3772,86.7697,299.5636,-0.00016888,-0.0002432,0.0,0 STARLINK-3547,1 51889U 22022AP  22091.25001157 -.00024320  00000-0 -16888-3 0  9991,2 51889  53.2168   2.3772 0001269  86.7697 299.5636 15.73265722  5724,6727.708000000001,91.529,350.427,348.719,0.0
51889.0,STARLINK-3547,PAYLOAD,2022-04-01 14:00:01,15.73228731,0.0001119,53.2171,0.7255,103.5257,11.8131,-0.00028308,-0.00040206,0.0,0 STARLINK-3547,1 51889U 22022AP  22091.58334491 -.00040206  00000-0 -28308-3 0  9998,2 51889  53.2171   0.7255 0001119 103.5257  11.8131 15.73228731  3698,6727.813,91.532,350.431,348.925,0.0
51889.0,STARLINK-3547,PAYLOAD,2022-04-01 20:00:01,15.73223382,0.0001095999999999,53.2174,359.4888,104.8437,347.205,-0.00054964,-0.00077129,0.0,0 STARLINK-3547,1 51889U 22022AP  22091.83334491 -.00077129  00000-0 -54964-3 0  9997,2 51889  53.2174 359.4888 0001096 104.8437 347.2050 15.73223382  5814,6727.829000000002,91.532,350.431,348.956,0.0
51889.0,STARLINK-3547,PAYLOAD,2022-04-01 22:00:00,15.73198249,0.0001024,53.2173,359.077,100.563,103.7092,-0.00059376,-0.00083122,0.0,0 STARLINK-3547,1 51889U 22022AP  22091.91667824 -.00083122  00000-0 -59376-3 0  9997,2 51889  53.2173 359.0770 0001024 100.5630 103.7092 15.73198249  3674,6727.9,91.533,350.454,349.076,0.0
51889.0,STARLINK-3547,PAYLOAD,2022-04-02 14:00:01,15.73152963,9.72e-05,53.2168,355.7772,105.1238,277.0306,0.00056589,0.00079391,0.0,0 STARLINK-3547,1 51889U 22022AP  22092.58335648  .00079391  00000-0  56589-3 0  9991,2 51889  53.2168 355.7772 0000972 105.1238 277.0306 15.73152963  5936,6728.029,91.536,350.548,349.24,0.0
51889.0,STARLINK-3547,PAYLOAD,2022-04-02 22:00:01,15.73214543,9.990000000000004e-05,53.2166,354.1292,100.6791,10.3765,-0.00070324,-0.00098228,0.0,0 STARLINK-3547,1 51889U 22022AP  22092.91668981 -.00098228  00000-0 -70324-3 0  9992,2 51889  53.2166 354.1292 0000999 100.6791  10.3765 15.73214543  5982,6727.854,91.532,350.391,349.047,0.0
51889.0,STARLINK-3547,PAYLOAD,2022-04-03 04:00:00,15.73129078,9.58e-05,53.2164,352.8933,92.6137,355.0856,0.00042285,0.00058961,0.0,0 STARLINK-3547,1 51889U 22022AP  22093.16667824  .00058961  00000-0  42285-3 0  9998,2 51889  53.2164 352.8933 0000958  92.6137 355.0856 15.73129078  6020,6728.097,91.537,350.607,349.3180000000001,0.0
51889.0,STARLINK-3547,PAYLOAD,2022-04-03 14:00:01,15.73128447,0.0001105,53.2163,350.829,107.1952,181.5898,0.00012576,0.00017012,0.0,0 STARLINK-3547,1 51889U 22022AP  22093.58334491  .00017012  00000-0  12576-3 0  9997,2 51889  53.2163 350.8290 0001105 107.1952 181.5898 15.73128447  6099,6728.099,91.537,350.708,349.221,0.0
51889.0,STARLINK-3547,PAYLOAD,2022-04-03 22:00:00,15.73104166,0.0001216,53.2166,349.1811,100.0952,277.5414,0.0010804,0.00153171,0.0,0 STARLINK-3547,1 51889U 22022AP  22093.91667824  .00153171  00000-0  10804-2 0  9991,2 51889  53.2166 349.1811 0001216 100.0952 277.5414 15.73104166  3692,6728.168000000002,91.539,350.852,349.215,0.0
51889.0,STARLINK-3547,PAYLOAD,2022-04-04 04:00:00,15.73217379,0.0001099,53.2164,347.9451,90.3578,263.9036,0.00010997,0.00014852,0.0,0 STARLINK-3547,1 51889U 22022AP  22094.16667824  .00014852  00000-0  10997-3 0  9995,2 51889  53.2164 347.9451 0001099  90.3578 263.9036 15.73217379  6187,6727.846,91.532,350.45,348.971,0.0
51889.0,STARLINK-3547,PAYLOAD,2022-04-04 14:00:01,15.73195603,0.0001312,53.216,345.8807,105.9725,89.4971,0.00057394,0.0008068999999999,0.0,0 STARLINK-3547,1 51889U 22022AP  22094.58334491  .00080690  00000-0  57394-3 0  9997,2 51889  53.2160 345.8807 0001312 105.9725  89.4971 15.73195603  3710,6727.908,91.533,350.655,348.89,0.0
51889.0,STARLINK-3547,PAYLOAD,2022-04-04 22:00:00,15.73238504,0.0001412,53.2159,344.2328,97.906,186.5445,4.8077e-05,6.143e-05,0.0,0 STARLINK-3547,1 51889U 22022AP  22094.91667824  .00006143  00000-0  48077-4 0  9993,2 51889  53.2159 344.2328 0001412  97.9060 186.5445 15.73238504  3704,6727.785,91.531,350.6,348.7,0.0
51889.0,STARLINK-3547,PAYLOAD,2022-04-05 06:00:00,15.73291784,0.0001200999999999,53.2154,342.5835,95.6679,277.7392,-0.00042513,-0.00060093,0.0,0 STARLINK-3547,1 51889U 22022AP  22095.25001157 -.00060093  00000-0 -42513-3 0  9996,2 51889  53.2154 342.5835 0001201  95.6679 277.7392 15.73291784  6357,6727.634,91.528,350.306,348.691,0.0
